#Pass ID: 20250125_185513_METOP-C
#Satellite: METOP-C
#Configuration: METOP-C
#Start time: 2025-01-25 18:55:18.940261

#LorettStation: 1.0.0 05.05.2024
#Station: Regia
#Location: 37.494653 lon 55.929028 lat
#TLE: 1 43689U 18087A   25024.93582557  .00000333  00000+0  17222-3 0  9996
#TLE: 2 43689  98.6950  87.2792 0001856 145.8334 214.2963 14.21488474322627

#Time	Az	El	Level	SNR
#Closed at: 2025-01-25 18:55:13.941688